[{"OBJECT_NAME":"BUGSAT-1 (TITA)","OBJECT_ID":"2014-033E","EPOCH":"2022-08-19T13:48:23.205312","MEAN_MOTION":14.96918044,"ECCENTRICITY":0.0030359,"INCLINATION":98.1439,"RA_OF_ASC_NODE":232.5679,"ARG_OF_PERICENTER":185.4008,"MEAN_ANOMALY":174.6878,"EPHEMERIS_TYPE":0,"CLASSIFICATION_TYPE":"U","NORAD_CAT_ID":40014,"ELEMENT_SET_NO":999,"REV_AT_EPOCH":44558,"BSTAR":0.00015777,"MEAN_MOTION_DOT":1.763e-5,"MEAN_MOTION_DDOT":0},{"OBJECT_NAME":"SAUDISAT 4","OBJECT_ID":"2014-033G","EPOCH":"2022-08-19T11:59:29.353920","MEAN_MOTION":14.75600987,"ECCENTRICITY":0.0046755,"INCLINATION":97.6409,"RA_OF_ASC_NODE":62.8781,"ARG_OF_PERICENTER":297.7708,"MEAN_ANOMALY":61.8765,"EPHEMERIS_TYPE":0,"CLASSIFICATION_TYPE":"U","NORAD_CAT_ID":40016,"ELEMENT_SET_NO":999,"REV_AT_EPOCH":43969,"BSTAR":4.8182e-5,"MEAN_MOTION_DOT":2.84e-6,"MEAN_MOTION_DDOT":0},{"OBJECT_NAME":"APRIZESAT 9","OBJECT_ID":"2014-033J","EPOCH":"2022-08-19T10:08:22.440480","MEAN_MOTION":14.70308967,"ECCENTRICITY":0.0071347,"INCLINATION":97.7213,"RA_OF_ASC_NODE":38.6464,"ARG_OF_PERICENTER":12.5458,"MEAN_ANOMALY":347.7504,"EPHEMERIS_TYPE":0,"CLASSIFICATION_TYPE":"U","NORAD_CAT_ID":40018,"ELEMENT_SET_NO":999,"REV_AT_EPOCH":43790,"BSTAR":5.1413e-5,"MEAN_MOTION_DOT":2.73e-6,"MEAN_MOTION_DDOT":0},{"OBJECT_NAME":"APRIZESAT 10","OBJECT_ID":"2014-033K","EPOCH":"2022-08-19T10:27:14.497344","MEAN_MOTION":14.67350354,"ECCENTRICITY":0.0085061,"INCLINATION":97.7761,"RA_OF_ASC_NODE":28.439,"ARG_OF_PERICENTER":55.9568,"MEAN_ANOMALY":304.9677,"EPHEMERIS_TYPE":0,"CLASSIFICATION_TYPE":"U","NORAD_CAT_ID":40019,"ELEMENT_SET_NO":999,"REV_AT_EPOCH":43703,"BSTAR":5.9764e-5,"MEAN_MOTION_DOT":3.07e-6,"MEAN_MOTION_DDOT":0},{"OBJECT_NAME":"TDS 1","OBJECT_ID":"2014-037H","EPOCH":"2022-08-19T09:53:18.696480","MEAN_MOTION":14.85845066,"ECCENTRICITY":0.0005741,"INCLINATION":98.3824,"RA_OF_ASC_NODE":107.6698,"ARG_OF_PERICENTER":220.0676,"MEAN_ANOMALY":140.0115,"EPHEMERIS_TYPE":0,"CLASSIFICATION_TYPE":"U","NORAD_CAT_ID":40076,"ELEMENT_SET_NO":999,"REV_AT_EPOCH":43905,"BSTAR":0.00020158,"MEAN_MOTION_DOT":1.695e-5,"MEAN_MOTION_DDOT":0},{"OBJECT_NAME":"TIANTUO 2","OBJECT_ID":"2014-053B","EPOCH":"2022-08-19T12:53:56.232960","MEAN_MOTION":15.38496903,"ECCENTRICITY":0.0010009,"INCLINATION":97.1913,"RA_OF_ASC_NODE":310.2388,"ARG_OF_PERICENTER":340.9935,"MEAN_ANOMALY":75.6064,"EPHEMERIS_TYPE":0,"CLASSIFICATION_TYPE":"U","NORAD_CAT_ID":40144,"ELEMENT_SET_NO":999,"REV_AT_EPOCH":44479,"BSTAR":0.000114,"MEAN_MOTION_DOT":4.255e-5,"MEAN_MOTION_DDOT":0},{"OBJECT_NAME":"TECHNOSAT","OBJECT_ID":"2017-042E","EPOCH":"2022-08-19T11:08:00.508128","MEAN_MOTION":14.9198676,"ECCENTRICITY":0.0014608,"INCLINATION":97.4154,"RA_OF_ASC_NODE":81.9106,"ARG_OF_PERICENTER":150.9008,"MEAN_ANOMALY":209.3029,"EPHEMERIS_TYPE":0,"CLASSIFICATION_TYPE":"U","NORAD_CAT_ID":42829,"ELEMENT_SET_NO":999,"REV_AT_EPOCH":27748,"BSTAR":0.0001237,"MEAN_MOTION_DOT":1.204e-5,"MEAN_MOTION_DDOT":0},{"OBJECT_NAME":"FLYING LAPTOP","OBJECT_ID":"2017-042G","EPOCH":"2022-08-19T12:16:27.716160","MEAN_MOTION":14.91876535,"ECCENTRICITY":0.0014355,"INCLINATION":97.4175,"RA_OF_ASC_NODE":82.285,"ARG_OF_PERICENTER":150.8488,"MEAN_ANOMALY":209.3547,"EPHEMERIS_TYPE":0,"CLASSIFICATION_TYPE":"U","NORAD_CAT_ID":42831,"ELEMENT_SET_NO":999,"REV_AT_EPOCH":27749,"BSTAR":1.4696e-5,"MEAN_MOTION_DOT":9.7e-7,"MEAN_MOTION_DDOT":0},{"OBJECT_NAME":"HAWK-A","OBJECT_ID":"2018-099H","EPOCH":"2022-08-19T12:01:31.388736","MEAN_MOTION":14.97239768,"ECCENTRICITY":0.0015842,"INCLINATION":97.615,"RA_OF_ASC_NODE":297.9064,"ARG_OF_PERICENTER":62.091,"MEAN_ANOMALY":298.1914,"EPHEMERIS_TYPE":0,"CLASSIFICATION_TYPE":"U","NORAD_CAT_ID":43765,"ELEMENT_SET_NO":999,"REV_AT_EPOCH":20257,"BSTAR":8.2942e-5,"MEAN_MOTION_DOT":9.05e-6,"MEAN_MOTION_DDOT":0},{"OBJECT_NAME":"HAWK-B","OBJECT_ID":"2018-099AN","EPOCH":"2022-08-19T12:02:04.416000","MEAN_MOTION":14.97239292,"ECCENTRICITY":0.0015891,"INCLINATION":97.6149,"RA_OF_ASC_NODE":297.9066,"ARG_OF_PERICENTER":62.311,"MEAN_ANOMALY":297.9722,"EPHEMERIS_TYPE":0,"CLASSIFICATION_TYPE":"U","NORAD_CAT_ID":43794,"ELEMENT_SET_NO":999,"REV_AT_EPOCH":20256,"BSTAR":8.2532e-5,"MEAN_MOTION_DOT":9.0e-6,"MEAN_MOTION_DDOT":0},{"OBJECT_NAME":"HAWK-C","OBJECT_ID":"2018-099AT","EPOCH":"2022-08-19T12:01:49.048896","MEAN_MOTION":14.97239454,"ECCENTRICITY":0.001577,"INCLINATION":97.6148,"RA_OF_ASC_NODE":297.8146,"ARG_OF_PERICENTER":62.0975,"MEAN_ANOMALY":298.1842,"EPHEMERIS_TYPE":0,"CLASSIFICATION_TYPE":"U","NORAD_CAT_ID":43799,"ELEMENT_SET_NO":999,"REV_AT_EPOCH":20331,"BSTAR":8.3575e-5,"MEAN_MOTION_DOT":9.12e-6,"MEAN_MOTION_DDOT":0},{"OBJECT_NAME":"SALSAT","OBJECT_ID":"2020-068K","EPOCH":"2022-08-19T09:47:33.207936","MEAN_MOTION":15.04725215,"ECCENTRICITY":0.0017909,"INCLINATION":97.7301,"RA_OF_ASC_NODE":172.7449,"ARG_OF_PERICENTER":66.6223,"MEAN_ANOMALY":293.6884,"EPHEMERIS_TYPE":0,"CLASSIFICATION_TYPE":"U","NORAD_CAT_ID":46495,"ELEMENT_SET_NO":999,"REV_AT_EPOCH":10365,"BSTAR":0.00013412,"MEAN_MOTION_DOT":1.832e-5,"MEAN_MOTION_DDOT":0}]