BUGSAT-1 (TITA)         
1 40014U 14033E   22231.57526858  .00001763  00000+0  15777-3 0  9992
2 40014  98.1439 232.5679 0030359 185.4008 174.6878 14.96918044445588
SAUDISAT 4              
1 40016U 14033G   22231.49964530  .00000284  00000+0  48182-4 0  9992
2 40016  97.6409  62.8781 0046755 297.7708  61.8765 14.75600987439698
APRIZESAT 9             
1 40018U 14033J   22231.42248195  .00000273  00000+0  51413-4 0  9998
2 40018  97.7213  38.6464 0071347  12.5458 347.7504 14.70308967437900
APRIZESAT 10            
1 40019U 14033K   22231.43558446  .00000307  00000+0  59764-4 0  9998
2 40019  97.7761  28.4390 0085061  55.9568 304.9677 14.67350354437038
TECHDEMOSAT-1 (TDS-1)   
1 40076U 14037H   22231.41202195  .00001695  00000+0  20158-3 0  9995
2 40076  98.3824 107.6698 0005741 220.0676 140.0115 14.85845066439050
TIANTUO 2               
1 40144U 14053B   22231.53745640  .00004255  00000+0  11400-3 0  9994
2 40144  97.1913 310.2388 0010009 340.9935  75.6064 15.38496903444797
TECHNOSAT               
1 42829U 17042E   22231.46389477  .00001204  00000+0  12370-3 0  9999
2 42829  97.4154  81.9106 0014608 150.9008 209.3029 14.91986760277488
FLYING LAPTOP           
1 42831U 17042G   22231.51143190  .00000097  00000+0  14696-4 0  9991
2 42831  97.4175  82.2850 0014355 150.8488 209.3547 14.91876535277498
HAWK-A                  
1 43765U 18099H   22231.50105774  .00000905  00000+0  82942-4 0  9993
2 43765  97.6150 297.9064 0015842  62.0910 298.1914 14.97239768202576
HAWK-B                  
1 43794U 18099AN  22231.50144000  .00000900  00000+0  82532-4 0  9990
2 43794  97.6149 297.9066 0015891  62.3110 297.9722 14.97239292202562
HAWK-C                  
1 43799U 18099AT  22231.50126214  .00000912  00000+0  83575-4 0  9993
2 43799  97.6148 297.8146 0015770  62.0975 298.1842 14.97239454203316
SALSAT                  
1 46495U 20068K   22231.40802324  .00001832  00000+0  13412-3 0  9994
2 46495  97.7301 172.7449 0017909  66.6223 293.6884 15.04725215103659
